{
  "type": "FeatureCollection",
  "features": [
    {
      "type": "Feature",
      "properties": {
        "norad_id": 66842,
        "name": "STARLINK-35769",
        "group": "last-30-days",
        "lat": -1.8342835219321691,
        "lon": 162.42855819201617,
        "alt_km": 411.3992778579495,
        "timestamp": "2025-12-25T14:48:23.570591+00:00",
        "meta_object_name": "STARLINK-35769",
        "meta_object_id": "2025-280X",
        "meta_epoch": "2025-12-24T23:21:08.879616",
        "meta_mean_motion": 15.52553506,
        "meta_eccentricity": 0.00029048,
        "meta_inclination": 70.0008,
        "meta_ra_of_asc_node": 164.86,
        "meta_arg_of_pericenter": 277.0344,
        "meta_mean_anomaly": 83.0513,
        "meta_ephemeris_type": 0,
        "meta_classification_type": "U",
        "meta_norad_cat_id": 66842,
        "meta_element_set_no": 999,
        "meta_rev_at_epoch": 483,
        "meta_bstar": 0.0014035243,
        "meta_mean_motion_dot": 0.00087236,
        "meta_mean_motion_ddot": 0,
        "tle_line1": "1 66842U 25280X   25358.97301944  .00087236  00000+0  14035-2 0  9993",
        "tle_line2": "2 66842  70.0008 164.8600 0002904 277.0344  83.0513 15.52553506  4832"
      },
      "geometry": {
        "type": "Point",
        "coordinates": [
          162.42855819201617,
          -1.8342835219321691
        ]
      }
    },
    {
      "type": "Feature",
      "properties": {
        "norad_id": 66843,
        "name": "STARLINK-35997",
        "group": "last-30-days",
        "lat": 1.7682582311494657,
        "lon": 163.73577016043876,
        "alt_km": 411.20466792328443,
        "timestamp": "2025-12-25T14:48:23.570601+00:00",
        "meta_object_name": "STARLINK-35997",
        "meta_object_id": "2025-280Y",
        "meta_epoch": "2025-12-24T23:20:09.195360",
        "meta_mean_motion": 15.52555254,
        "meta_eccentricity": 0.00035578,
        "meta_inclination": 70.001,
        "meta_ra_of_asc_node": 164.8565,
        "meta_arg_of_pericenter": 274.5946,
        "meta_mean_anomaly": 85.4834,
        "meta_ephemeris_type": 0,
        "meta_classification_type": "U",
        "meta_norad_cat_id": 66843,
        "meta_element_set_no": 999,
        "meta_rev_at_epoch": 483,
        "meta_bstar": 0.001069993,
        "meta_mean_motion_dot": 0.00066299,
        "meta_mean_motion_ddot": 0,
        "tle_line1": "1 66843U 25280Y   25358.97232865  .00066299  00000+0  10700-2 0  9990",
        "tle_line2": "2 66843  70.0010 164.8565 0003557 274.5946  85.4834 15.52555254  4835"
      },
      "geometry": {
        "type": "Point",
        "coordinates": [
          163.73577016043876,
          1.7682582311494657
        ]
      }
    },
    {
      "type": "Feature",
      "properties": {
        "norad_id": 66844,
        "name": "STARLINK-36073",
        "group": "last-30-days",
        "lat": -0.06463175024354306,
        "lon": 163.07094759493137,
        "alt_km": 411.36336286418737,
        "timestamp": "2025-12-25T14:48:23.570611+00:00",
        "meta_object_name": "STARLINK-36073",
        "meta_object_id": "2025-280Z",
        "meta_epoch": "2025-12-24T23:20:39.158880",
        "meta_mean_motion": 15.52546193,
        "meta_eccentricity": 0.00032681,
        "meta_inclination": 70.0009,
        "meta_ra_of_asc_node": 164.8585,
        "meta_arg_of_pericenter": 275.0662,
        "meta_mean_anomaly": 85.0152,
        "meta_ephemeris_type": 0,
        "meta_classification_type": "U",
        "meta_norad_cat_id": 66844,
        "meta_element_set_no": 999,
        "meta_rev_at_epoch": 480,
        "meta_bstar": 0.0011634187,
        "meta_mean_motion_dot": 0.0007213,
        "meta_mean_motion_ddot": 0,
        "tle_line1": "1 66844U 25280Z   25358.97267545  .00072130  00000+0  11634-2 0  9992",
        "tle_line2": "2 66844  70.0009 164.8585 0003268 275.0662  85.0152 15.52546193  4804"
      },
      "geometry": {
        "type": "Point",
        "coordinates": [
          163.07094759493137,
          -0.06463175024354306
        ]
      }
    },
    {
      "type": "Feature",
      "properties": {
        "norad_id": 66845,
        "name": "STARLINK-36068",
        "group": "last-30-days",
        "lat": 7.157442238751805,
        "lon": 165.70609399995928,
        "alt_km": 410.6300766710383,
        "timestamp": "2025-12-25T14:48:23.570620+00:00",
        "meta_object_name": "STARLINK-36068",
        "meta_object_id": "2025-280AA",
        "meta_epoch": "2025-12-24T23:18:40.609440",
        "meta_mean_motion": 15.52551578,
        "meta_eccentricity": 0.00032149,
        "meta_inclination": 70.0011,
        "meta_ra_of_asc_node": 164.8525,
        "meta_arg_of_pericenter": 275.2354,
        "meta_mean_anomaly": 84.8466,
        "meta_ephemeris_type": 0,
        "meta_classification_type": "U",
        "meta_norad_cat_id": 66845,
        "meta_element_set_no": 999,
        "meta_rev_at_epoch": 483,
        "meta_bstar": 0.0012342725,
        "meta_mean_motion_dot": 0.0007659,
        "meta_mean_motion_ddot": 0,
        "tle_line1": "1 66845U 25280AA  25358.97130335  .00076590  00000+0  12343-2 0  9991",
        "tle_line2": "2 66845  70.0011 164.8525 0003214 275.2354  84.8466 15.52551578  4834"
      },
      "geometry": {
        "type": "Point",
        "coordinates": [
          165.70609399995928,
          7.157442238751805
        ]
      }
    },
    {
      "type": "Feature",
      "properties": {
        "norad_id": 66846,
        "name": "STARLINK-36055",
        "group": "last-30-days",
        "lat": 3.5951704594519143,
        "lon": 164.40058405825658,
        "alt_km": 410.88340025235993,
        "timestamp": "2025-12-25T14:48:23.570629+00:00",
        "meta_object_name": "STARLINK-36055",
        "meta_object_id": "2025-280AB",
        "meta_epoch": "2025-12-24T23:19:39.877248",
        "meta_mean_motion": 15.52555752,
        "meta_eccentricity": 0.00031662,
        "meta_inclination": 70.0008,
        "meta_ra_of_asc_node": 164.8553,
        "meta_arg_of_pericenter": 275.5596,
        "meta_mean_anomaly": 84.523,
        "meta_ephemeris_type": 0,
        "meta_classification_type": "U",
        "meta_norad_cat_id": 66846,
        "meta_element_set_no": 999,
        "meta_rev_at_epoch": 483,
        "meta_bstar": 0.0015723498,
        "meta_mean_motion_dot": 0.00097892,
        "meta_mean_motion_ddot": 0,
        "tle_line1": "1 66846U 25280AB  25358.97198932  .00097892  00000+0  15723-2 0  9992",
        "tle_line2": "2 66846  70.0008 164.8553 0003166 275.5596  84.5230 15.52555752  4833"
      },
      "geometry": {
        "type": "Point",
        "coordinates": [
          164.40058405825658,
          3.5951704594519143
        ]
      }
    },
    {
      "type": "Feature",
      "properties": {
        "norad_id": 66847,
        "name": "STARLINK-36061",
        "group": "last-30-days",
        "lat": 5.352255168785898,
        "lon": 165.04258397546772,
        "alt_km": 410.9134953593257,
        "timestamp": "2025-12-25T14:48:23.570639+00:00",
        "meta_object_name": "STARLINK-36061",
        "meta_object_id": "2025-280AC",
        "meta_epoch": "2025-12-24T23:19:10.263648",
        "meta_mean_motion": 15.52547051,
        "meta_eccentricity": 0.00032551,
        "meta_inclination": 70.001,
        "meta_ra_of_asc_node": 164.854,
        "meta_arg_of_pericenter": 272.554,
        "meta_mean_anomaly": 87.5274,
        "meta_ephemeris_type": 0,
        "meta_classification_type": "U",
        "meta_norad_cat_id": 66847,
        "meta_element_set_no": 999,
        "meta_rev_at_epoch": 483,
        "meta_bstar": 0.0013062776,
        "meta_mean_motion_dot": 0.00081101,
        "meta_mean_motion_ddot": 0,
        "tle_line1": "1 66847U 25280AC  25358.97164657  .00081101  00000+0  13063-2 0  9991",
        "tle_line2": "2 66847  70.0010 164.8540 0003255 272.5540  87.5274 15.52547051  4832"
      },
      "geometry": {
        "type": "Point",
        "coordinates": [
          165.04258397546772,
          5.352255168785898
        ]
      }
    },
    {
      "type": "Feature",
      "properties": {
        "norad_id": 66848,
        "name": "STARLINK-36091",
        "group": "last-30-days",
        "lat": 23.434793268921354,
        "lon": -163.35979854970498,
        "alt_km": 406.0784924557038,
        "timestamp": "2025-12-25T14:48:23.570650+00:00",
        "meta_object_name": "STARLINK-36091",
        "meta_object_id": "2025-281A",
        "meta_epoch": "2025-12-25T08:00:01.000224",
        "meta_mean_motion": 15.53775966,
        "meta_eccentricity": 0.00013366,
        "meta_inclination": 43.0002,
        "meta_ra_of_asc_node": 46.0263,
        "meta_arg_of_pericenter": 262.4282,
        "meta_mean_anomaly": 94.2519,
        "meta_ephemeris_type": 0,
        "meta_classification_type": "U",
        "meta_norad_cat_id": 66848,
        "meta_element_set_no": 999,
        "meta_rev_at_epoch": 341,
        "meta_bstar": -0.034132426,
        "meta_mean_motion_dot": -0.02008328,
        "meta_mean_motion_ddot": 0,
        "tle_line1": "1 66848U 25281A   25359.33334491 -.02008328  00000+0 -34132-1 0  9992",
        "tle_line2": "2 66848  43.0002  46.0263 0001336 262.4282  94.2519 15.53775966  3415"
      },
      "geometry": {
        "type": "Point",
        "coordinates": [
          -163.35979854970498,
          23.434793268921354
        ]
      }
    }
  ]
}